{
    "type": "FeatureCollection",
    "features": [
        {
            "type": "Feature",
            "properties": {
                "Route": "Alameda BRIO Route"
            },
            "geometry": {
                "type": "LineString",
                "coordinates": [
                    [
                        -106.327883,
                        31.691866
                    ],
                    [
                        -106.335647,
                        31.694913
                    ],
                    [
                        -106.336754,
                        31.695532
                    ],
                    [
                        -106.337758,
                        31.696548
                    ],
                    [
                        -106.340448,
                        31.700852
                    ],
                    [
                        -106.34414,
                        31.706591
                    ],
                    [
                        -106.344937,
                        31.707891
                    ],
                    [
                        -106.34962,
                        31.714304
                    ],
                    [
                        -106.350616,
                        31.715886
                    ],
                    [
                        -106.355248,
                        31.722664
                    ],
                    [
                        -106.356183,
                        31.724124
                    ],
                    [
                        -106.356661,
                        31.72466
                    ],
                    [
                        -106.357118,
                        31.725244
                    ],
                    [
                        -106.357975,
                        31.726053
                    ],
                    [
                        -106.361139,
                        31.728583
                    ],
                    [
                        -106.399081,
                        31.759335
                    ],
                    [
                        -106.400346,
                        31.760745
                    ],
                    [
                        -106.402747,
                        31.76364
                    ],
                    [
                        -106.411503,
                        31.765464
                    ],
                    [
                        -106.427398,
                        31.768666
                    ],
                    [
                        -106.428632,
                        31.769228
                    ],
                    [
                        -106.43329,
                        31.770268
                    ],
                    [
                        -106.436894,
                        31.77154
                    ],
                    [
                        -106.440838,
                        31.772147
                    ],
                    [
                        -106.442266,
                        31.773361
                    ],
                    [
                        -106.462771,
                        31.773494
                    ],
                    [
                        -106.464327,
                        31.773547
                    ],
                    [
                        -106.481223,
                        31.762679
                    ],
                    [
                        -106.479963,
                        31.761222
                    ],
                    [
                        -106.482841,
                        31.759333
                    ],
                    [
                        -106.483311,
                        31.759151
                    ],
                    [
                        -106.48375,
                        31.759005
                    ],
                    [
                        -106.483729,
                        31.758555
                    ],
                    [
                        -106.483017,
                        31.756405
                    ],
                    [
                        -106.484118,
                        31.756059
                    ],
                    [
                        -106.486079,
                        31.755571
                    ],
                    [
                        -106.485553,
                        31.753903
                    ],
                    [
                        -106.488795,
                        31.75315
                    ]
                ]
            }
        },
        {
            "type": "Feature",
            "properties": {
                "Route": "Dyer BRIO Route"
            },
            "geometry": {
                "type": "LineString",
                "coordinates": [
                    [
                        -106.488764,
                        31.75322
                    ],
                    [
                        -106.489299,
                        31.754927
                    ],
                    [
                        -106.48404,
                        31.756164
                    ],
                    [
                        -106.483096,
                        31.756469
                    ],
                    [
                        -106.48378,
                        31.758633
                    ],
                    [
                        -106.48377,
                        31.759075
                    ],
                    [
                        -106.483704,
                        31.759391
                    ],
                    [
                        -106.489085,
                        31.765544
                    ],
                    [
                        -106.46302,
                        31.782349
                    ],
                    [
                        -106.462237,
                        31.782843
                    ],
                    [
                        -106.461874,
                        31.783503
                    ],
                    [
                        -106.461556,
                        31.783719
                    ],
                    [
                        -106.461293,
                        31.78375
                    ],
                    [
                        -106.459951,
                        31.783765
                    ],
                    [
                        -106.459924,
                        31.784761
                    ],
                    [
                        -106.457423,
                        31.784747
                    ],
                    [
                        -106.456886,
                        31.784825
                    ],
                    [
                        -106.451401,
                        31.787079
                    ],
                    [
                        -106.448942,
                        31.788119
                    ],
                    [
                        -106.448683,
                        31.788351
                    ],
                    [
                        -106.446707,
                        31.79185
                    ],
                    [
                        -106.44661,
                        31.793182
                    ],
                    [
                        -106.444857,
                        31.796538
                    ],
                    [
                        -106.444,
                        31.798157
                    ],
                    [
                        -106.443932,
                        31.798831
                    ],
                    [
                        -106.444,
                        31.799322
                    ],
                    [
                        -106.444397,
                        31.80037
                    ],
                    [
                        -106.444653,
                        31.801624
                    ],
                    [
                        -106.444729,
                        31.803045
                    ],
                    [
                        -106.444649,
                        31.823258
                    ],
                    [
                        -106.444831,
                        31.824649
                    ],
                    [
                        -106.445091,
                        31.826239
                    ],
                    [
                        -106.445169,
                        31.831405
                    ],
                    [
                        -106.445197,
                        31.843662
                    ],
                    [
                        -106.444524,
                        31.845219
                    ],
                    [
                        -106.439775,
                        31.852365
                    ],
                    [
                        -106.431327,
                        31.865245
                    ],
                    [
                        -106.428095,
                        31.869932
                    ],
                    [
                        -106.423442,
                        31.877138
                    ],
                    [
                        -106.420392,
                        31.881636
                    ],
                    [
                        -106.420378,
                        31.881674
                    ],
                    [
                        -106.418389,
                        31.880706
                    ]
                ]
            }
        },
        {
            "type": "Feature",
            "properties": {
                "Route": "Mesa BRIO Route"
            },
            "geometry": {
                "type": "LineString",
                "coordinates": [
                    [
                        -106.488736,
                        31.753219
                    ],
                    [
                        -106.490046,
                        31.757417
                    ],
                    [
                        -106.490167,
                        31.757668
                    ],
                    [
                        -106.491623,
                        31.759419
                    ],
                    [
                        -106.489973,
                        31.760446
                    ],
                    [
                        -106.489093,
                        31.761029
                    ],
                    [
                        -106.504564,
                        31.778609
                    ],
                    [
                        -106.505141,
                        31.780268
                    ],
                    [
                        -106.505429,
                        31.782977
                    ],
                    [
                        -106.507341,
                        31.789384
                    ],
                    [
                        -106.508128,
                        31.792197
                    ],
                    [
                        -106.508777,
                        31.793031
                    ],
                    [
                        -106.510075,
                        31.793838
                    ],
                    [
                        -106.510819,
                        31.794524
                    ],
                    [
                        -106.511088,
                        31.79525
                    ],
                    [
                        -106.511151,
                        31.798496
                    ],
                    [
                        -106.510351,
                        31.800918
                    ],
                    [
                        -106.509372,
                        31.803715
                    ],
                    [
                        -106.509205,
                        31.805615
                    ],
                    [
                        -106.509277,
                        31.806909
                    ],
                    [
                        -106.510036,
                        31.808031
                    ],
                    [
                        -106.512093,
                        31.810874
                    ],
                    [
                        -106.513134,
                        31.813717
                    ],
                    [
                        -106.513977,
                        31.816328
                    ],
                    [
                        -106.514683,
                        31.817096
                    ],
                    [
                        -106.528061,
                        31.829078
                    ],
                    [
                        -106.530317,
                        31.830623
                    ],
                    [
                        -106.532227,
                        31.831562
                    ],
                    [
                        -106.533608,
                        31.832149
                    ],
                    [
                        -106.550917,
                        31.83578
                    ],
                    [
                        -106.561934,
                        31.837859
                    ],
                    [
                        -106.562448,
                        31.835832
                    ],
                    [
                        -106.562859,
                        31.835284
                    ],
                    [
                        -106.5638,
                        31.834593
                    ],
                    [
                        -106.564341,
                        31.834451
                    ]
                ]
            }
        },
        {
            "type": "Feature",
            "properties": {
                "Route": "Montana BRIO Route"
            },
            "geometry": {
                "type": "LineString",
                "coordinates": [
                    [
                        -106.462262,
                        31.7828
                    ],
                    [
                        -106.462164,
                        31.782915
                    ],
                    [
                        -106.462101,
                        31.783068
                    ],
                    [
                        -106.461981,
                        31.783388
                    ],
                    [
                        -106.461834,
                        31.783591
                    ],
                    [
                        -106.461513,
                        31.783769
                    ],
                    [
                        -106.459606,
                        31.783749
                    ],
                    [
                        -106.42077,
                        31.783579
                    ],
                    [
                        -106.418316,
                        31.783695
                    ],
                    [
                        -106.416166,
                        31.784253
                    ],
                    [
                        -106.413282,
                        31.785499
                    ],
                    [
                        -106.409026,
                        31.787951
                    ],
                    [
                        -106.395517,
                        31.789797
                    ],
                    [
                        -106.39559,
                        31.793765
                    ],
                    [
                        -106.395641,
                        31.794526
                    ],
                    [
                        -106.395897,
                        31.795081
                    ],
                    [
                        -106.396473,
                        31.79557
                    ],
                    [
                        -106.397266,
                        31.795874
                    ],
                    [
                        -106.400141,
                        31.795812
                    ],
                    [
                        -106.400212,
                        31.797901
                    ],
                    [
                        -106.399644,
                        31.798275
                    ],
                    [
                        -106.397854,
                        31.798759
                    ],
                    [
                        -106.397554,
                        31.798625
                    ],
                    [
                        -106.397486,
                        31.798023
                    ],
                    [
                        -106.397316,
                        31.797919
                    ],
                    [
                        -106.396627,
                        31.797901
                    ],
                    [
                        -106.396253,
                        31.797461
                    ],
                    [
                        -106.39596,
                        31.796778
                    ],
                    [
                        -106.395988,
                        31.796166
                    ],
                    [
                        -106.396164,
                        31.795646
                    ],
                    [
                        -106.396247,
                        31.795214
                    ],
                    [
                        -106.396102,
                        31.794606
                    ],
                    [
                        -106.39575,
                        31.793618
                    ],
                    [
                        -106.395719,
                        31.792188
                    ],
                    [
                        -106.395525,
                        31.784019
                    ],
                    [
                        -106.395431,
                        31.783152
                    ],
                    [
                        -106.394647,
                        31.782366
                    ],
                    [
                        -106.393376,
                        31.782073
                    ],
                    [
                        -106.392686,
                        31.781686
                    ],
                    [
                        -106.392404,
                        31.781379
                    ],
                    [
                        -106.391589,
                        31.781566
                    ],
                    [
                        -106.390883,
                        31.781619
                    ],
                    [
                        -106.389189,
                        31.781499
                    ],
                    [
                        -106.384274,
                        31.780586
                    ],
                    [
                        -106.381404,
                        31.779947
                    ],
                    [
                        -106.380036,
                        31.7794
                    ],
                    [
                        -106.378372,
                        31.778488
                    ],
                    [
                        -106.376521,
                        31.776937
                    ],
                    [
                        -106.374697,
                        31.775637
                    ],
                    [
                        -106.3729,
                        31.778159
                    ],
                    [
                        -106.370544,
                        31.785405
                    ],
                    [
                        -106.370637,
                        31.786749
                    ],
                    [
                        -106.371866,
                        31.792889
                    ],
                    [
                        -106.247665,
                        31.809122
                    ],
                    [
                        -106.247175,
                        31.80738
                    ],
                    [
                        -106.247214,
                        31.804646
                    ],
                    [
                        -106.247252,
                        31.802401
                    ],
                    [
                        -106.246037,
                        31.799317
                    ],
                    [
                        -106.245004,
                        31.797615
                    ],
                    [
                        -106.247833,
                        31.796088
                    ],
                    [
                        -106.248804,
                        31.795719
                    ]
                ]
            }
        }
    ]
}